start=new Date('2022-11-13T00:00:00.000Z').valueOf();
sats=[{"APOAPSIS":"540.773","TIME_SYSTEM":"UTC","REF_FRAME":"TEME","MEAN_ELEMENT_THEORY":"SGP4","TLE_LINE1":"1 52858U 22062AE  22316.50249306  .00002040  00000-0  14620-3 0  9995","PERIAPSIS":"538.676","NORAD_CAT_ID":"52858","SEMIMAJOR_AXIS":"6917.859","PERIOD":"95.437","BSTAR":"0.00014620000000","OBJECT_TYPE":"PAYLOAD","ELEMENT_SET_NO":"999","INCLINATION":"53.2172","CENTER_NAME":"EARTH","COUNTRY_CODE":"US","MEAN_MOTION_DOT":"0.00002040","MEAN_MOTION_DDOT":"0.0000000000000","OBJECT_ID":"2022-062AE","OBJECT_NAME":"STARLINK-4198","FILE":"3652574","MEAN_ANOMALY":"310.8039","TLE_LINE2":"2 52858  53.2172  70.3210 0001516  49.3084 310.8039 15.08846865 23262","RCS_SIZE":"LARGE","SITE":"AFETR","ECCENTRICITY":"0.00015160","LAUNCH_DATE":"2022-06-17","GP_ID":"217564583","ARG_OF_PERICENTER":"49.3084","CLASSIFICATION_TYPE":"U","DECAY_DATE":null,"EPOCH":"2022-11-12T12:03:35.400384","RA_OF_ASC_NODE":"70.3210","MEAN_MOTION":"15.08846865","REV_AT_EPOCH":"2326","EPHEMERIS_TYPE":"0"},{"INCLINATION":"53.2177","ELEMENT_SET_NO":"999","OBJECT_TYPE":"PAYLOAD","BSTAR":"0.00019070000000","FILE":"3652635","OBJECT_ID":"2022-062AF","OBJECT_NAME":"STARLINK-4196","MEAN_MOTION_DDOT":"0.0000000000000","MEAN_MOTION_DOT":"0.00002749","COUNTRY_CODE":"US","CENTER_NAME":"EARTH","NORAD_CAT_ID":"52859","PERIAPSIS":"538.467","TLE_LINE1":"1 52859U 22062AF  22316.68922249  .00002749  00000-0  19070-3 0  9999","MEAN_ELEMENT_THEORY":"SGP4","REF_FRAME":"TEME","TIME_SYSTEM":"UTC","APOAPSIS":"540.953","PERIOD":"95.437","SEMIMAJOR_AXIS":"6917.845","RA_OF_ASC_NODE":"69.4784","EPOCH":"2022-11-12T16:32:28.823136","DECAY_DATE":null,"CLASSIFICATION_TYPE":"U","ARG_OF_PERICENTER":"44.3290","EPHEMERIS_TYPE":"0","REV_AT_EPOCH":"2280","MEAN_MOTION":"15.08851670","RCS_SIZE":"LARGE","TLE_LINE2":"2 52859  53.2177  69.4784 0001797  44.3290 315.7846 15.08851670 22807","MEAN_ANOMALY":"315.7846","GP_ID":"217589659","LAUNCH_DATE":"2022-06-17","ECCENTRICITY":"0.00017970","SITE":"AFETR"},{"COUNTRY_CODE":"US","CENTER_NAME":"EARTH","MEAN_MOTION_DDOT":"0.0000000000000","MEAN_MOTION_DOT":"0.00017973","OBJECT_ID":"2022-062AG","OBJECT_NAME":"STARLINK-4191","FILE":"3652635","INCLINATION":"53.2180","OBJECT_TYPE":"PAYLOAD","BSTAR":"0.00114370000000","ELEMENT_SET_NO":"999","PERIOD":"95.436","SEMIMAJOR_AXIS":"6917.805","APOAPSIS":"541.241","REF_FRAME":"TEME","MEAN_ELEMENT_THEORY":"SGP4","TIME_SYSTEM":"UTC","TLE_LINE1":"1 52860U 22062AG  22316.69659127  .00017973  00000-0  11437-2 0  9997","NORAD_CAT_ID":"52860","PERIAPSIS":"538.099","MEAN_MOTION":"15.08864684","EPHEMERIS_TYPE":"0","REV_AT_EPOCH":"2280","CLASSIFICATION_TYPE":"U","ARG_OF_PERICENTER":"30.8988","DECAY_DATE":null,"EPOCH":"2022-11-12T16:43:05.485728","RA_OF_ASC_NODE":"69.4510","ECCENTRICITY":"0.00022710","SITE":"AFETR","LAUNCH_DATE":"2022-06-17","GP_ID":"217589489","MEAN_ANOMALY":"329.2137","TLE_LINE2":"2 52860  53.2180  69.4510 0002271  30.8988 329.2137 15.08864684 22804","RCS_SIZE":"LARGE"},{"MEAN_ELEMENT_THEORY":"SGP4","REF_FRAME":"TEME","TIME_SYSTEM":"UTC","APOAPSIS":"541.209","NORAD_CAT_ID":"52861","PERIAPSIS":"538.273","TLE_LINE1":"1 52861U 22062AH  22316.73705055  .00001889  00000-0  13678-3 0  9994","PERIOD":"95.437","SEMIMAJOR_AXIS":"6917.876","INCLINATION":"53.2194","OBJECT_TYPE":"PAYLOAD","BSTAR":"0.00013678000000","ELEMENT_SET_NO":"999","MEAN_MOTION_DOT":"0.00001889","MEAN_MOTION_DDOT":"0.0000000000000","COUNTRY_CODE":"US","CENTER_NAME":"EARTH","FILE":"3652635","OBJECT_ID":"2022-062AH","OBJECT_NAME":"STARLINK-4112","TLE_LINE2":"2 52861  53.2194  69.2720 0002122  42.5500 317.5657 15.08841412 22818","MEAN_ANOMALY":"317.5657","RCS_SIZE":"LARGE","ECCENTRICITY":"0.00021220","SITE":"AFETR","GP_ID":"217590498","LAUNCH_DATE":"2022-06-17","CLASSIFICATION_TYPE":"U","ARG_OF_PERICENTER":"42.5500","RA_OF_ASC_NODE":"69.2720","DECAY_DATE":null,"EPOCH":"2022-11-12T17:41:21.167520","MEAN_MOTION":"15.08841412","EPHEMERIS_TYPE":"0","REV_AT_EPOCH":"2281"},{"EPHEMERIS_TYPE":"0","REV_AT_EPOCH":"2280","MEAN_MOTION":"15.08844968","RA_OF_ASC_NODE":"69.4958","EPOCH":"2022-11-12T16:27:10.030464","DECAY_DATE":null,"CLASSIFICATION_TYPE":"U","ARG_OF_PERICENTER":"57.5332","GP_ID":"217589735","LAUNCH_DATE":"2022-06-17","ECCENTRICITY":"0.00017080","SITE":"AFETR","RCS_SIZE":"LARGE","TLE_LINE2":"2 52862  53.2184  69.4958 0001708  57.5332 302.5826 15.08844968 22801","MEAN_ANOMALY":"302.5826","FILE":"3652635","OBJECT_ID":"2022-062AJ","OBJECT_NAME":"STARLINK-4010","MEAN_MOTION_DOT":"0.00003186","MEAN_MOTION_DDOT":"0.0000000000000","COUNTRY_CODE":"US","CENTER_NAME":"EARTH","INCLINATION":"53.2184","ELEMENT_SET_NO":"999","OBJECT_TYPE":"PAYLOAD","BSTAR":"0.00021816000000","PERIOD":"95.437","SEMIMAJOR_AXIS":"6917.865","NORAD_CAT_ID":"52862","PERIAPSIS":"538.549","TLE_LINE1":"1 52862U 22062AJ  22316.68553276  .00003186  00000-0  21816-3 0  9990","MEAN_ELEMENT_THEORY":"SGP4","REF_FRAME":"TEME","TIME_SYSTEM":"UTC","APOAPSIS":"540.912"},{"CLASSIFICATION_TYPE":"U","ARG_OF_PERICENTER":"44.2557","RA_OF_ASC_NODE":"69.8252","DECAY_DATE":null,"EPOCH":"2022-11-12T14:41:12.073920","MEAN_MOTION":"15.08838740","EPHEMERIS_TYPE":"0","REV_AT_EPOCH":"2279","TLE_LINE2":"2 52863  53.2194  69.8252 0001883  44.2557 315.8586 15.08838740 22799","MEAN_ANOMALY":"315.8586","RCS_SIZE":"LARGE","ECCENTRICITY":"0.00018830","SITE":"AFETR","LAUNCH_DATE":"2022-06-17","GP_ID":"217590074","INCLINATION":"53.2194","ELEMENT_SET_NO":"999","OBJECT_TYPE":"PAYLOAD","BSTAR":"0.00014908000000","MEAN_MOTION_DOT":"0.00002085","MEAN_MOTION_DDOT":"0.0000000000000","COUNTRY_CODE":"US","CENTER_NAME":"EARTH","FILE":"3652635","OBJECT_ID":"2022-062AK","OBJECT_NAME":"STARLINK-4270","MEAN_ELEMENT_THEORY":"SGP4","REF_FRAME":"TEME","TIME_SYSTEM":"UTC","APOAPSIS":"541.052","NORAD_CAT_ID":"52863","PERIAPSIS":"538.447","TLE_LINE1":"1 52863U 22062AK  22316.61194530  .00002085  00000-0  14908-3 0  9999","PERIOD":"95.438","SEMIMAJOR_AXIS":"6917.884"},{"SEMIMAJOR_AXIS":"6917.806","PERIOD":"95.436","APOAPSIS":"541.115","TIME_SYSTEM":"UTC","REF_FRAME":"TEME","MEAN_ELEMENT_THEORY":"SGP4","TLE_LINE1":"1 52864U 22062AL  22316.61561938  .00008560  00000-0  55491-3 0  9996","PERIAPSIS":"538.227","NORAD_CAT_ID":"52864","CENTER_NAME":"EARTH","COUNTRY_CODE":"US","MEAN_MOTION_DDOT":"0.0000000000000","MEAN_MOTION_DOT":"0.00008560","OBJECT_NAME":"STARLINK-4267","OBJECT_ID":"2022-062AL","FILE":"3652635","OBJECT_TYPE":"PAYLOAD","ELEMENT_SET_NO":"999","BSTAR":"0.00055491000000","INCLINATION":"53.2176","SITE":"AFETR","ECCENTRICITY":"0.00020880","GP_ID":"217589905","LAUNCH_DATE":"2022-06-17","MEAN_ANOMALY":"311.3945","TLE_LINE2":"2 52864  53.2176  69.8058 0002088  48.7227 311.3945 15.08864318 22795","RCS_SIZE":"LARGE","MEAN_MOTION":"15.08864318","REV_AT_EPOCH":"2279","EPHEMERIS_TYPE":"0","ARG_OF_PERICENTER":"48.7227","CLASSIFICATION_TYPE":"U","DECAY_DATE":null,"EPOCH":"2022-11-12T14:46:29.514432","RA_OF_ASC_NODE":"69.8058"},{"SITE":"AFETR","ECCENTRICITY":"0.00019460","GP_ID":"217590235","LAUNCH_DATE":"2022-06-17","TLE_LINE2":"2 52865  53.2203  69.5937 0001946  40.2219 319.8917 15.08857150 22800","MEAN_ANOMALY":"319.8917","RCS_SIZE":"LARGE","MEAN_MOTION":"15.08857150","REV_AT_EPOCH":"2280","EPHEMERIS_TYPE":"0","ARG_OF_PERICENTER":"40.2219","CLASSIFICATION_TYPE":"U","RA_OF_ASC_NODE":"69.5937","EPOCH":"2022-11-12T16:00:40.840704","DECAY_DATE":null,"SEMIMAJOR_AXIS":"6917.828","PERIOD":"95.436","TIME_SYSTEM":"UTC","REF_FRAME":"TEME","MEAN_ELEMENT_THEORY":"SGP4","APOAPSIS":"541.039","PERIAPSIS":"538.347","NORAD_CAT_ID":"52865","TLE_LINE1":"1 52865U 22062AM  22316.66713936  .00010087  00000-0  65066-3 0  9995","MEAN_MOTION_DDOT":"0.0000000000000","MEAN_MOTION_DOT":"0.00010087","CENTER_NAME":"EARTH","COUNTRY_CODE":"US","FILE":"3652635","OBJECT_NAME":"STARLINK-4274","OBJECT_ID":"2022-062AM","BSTAR":"0.00065066000000","OBJECT_TYPE":"PAYLOAD","ELEMENT_SET_NO":"999","INCLINATION":"53.2203"},{"OBJECT_TYPE":"PAYLOAD","ELEMENT_SET_NO":"999","BSTAR":"0.00021200000000","INCLINATION":"53.2193","OBJECT_ID":"2022-062AN","OBJECT_NAME":"STARLINK-4272","FILE":"3652635","CENTER_NAME":"EARTH","COUNTRY_CODE":"US","MEAN_MOTION_DOT":"0.00003088","MEAN_MOTION_DDOT":"0.0000000000000","TLE_LINE1":"1 52866U 22062AN  22316.60826547  .00003088  00000-0  21200-3 0  9998","PERIAPSIS":"538.405","NORAD_CAT_ID":"52866","APOAPSIS":"541.064","TIME_SYSTEM":"UTC","REF_FRAME":"TEME","MEAN_ELEMENT_THEORY":"SGP4","SEMIMAJOR_AXIS":"6917.870","PERIOD":"95.437","DECAY_DATE":null,"EPOCH":"2022-11-12T14:35:54.136608","RA_OF_ASC_NODE":"69.8447","ARG_OF_PERICENTER":"47.3116","CLASSIFICATION_TYPE":"U","REV_AT_EPOCH":"2279","EPHEMERIS_TYPE":"0","MEAN_MOTION":"15.08843478","RCS_SIZE":"LARGE","MEAN_ANOMALY":"312.8038","TLE_LINE2":"2 52866  53.2193  69.8447 0001922  47.3116 312.8038 15.08843478 22799","LAUNCH_DATE":"2022-06-17","GP_ID":"217589320","SITE":"AFETR","ECCENTRICITY":"0.00019220"},{"SEMIMAJOR_AXIS":"6917.856","PERIOD":"95.437","PERIAPSIS":"538.213","NORAD_CAT_ID":"52867","TLE_LINE1":"1 52867U 22062AP  22316.72600981  .00000880  00000-0  73396-4 0  9995","TIME_SYSTEM":"UTC","MEAN_ELEMENT_THEORY":"SGP4","REF_FRAME":"TEME","APOAPSIS":"541.230","FILE":"3652635","OBJECT_ID":"2022-062AP","OBJECT_NAME":"STARLINK-4126","MEAN_MOTION_DDOT":"0.0000000000000","MEAN_MOTION_DOT":"0.00000880","CENTER_NAME":"EARTH","COUNTRY_CODE":"US","BSTAR":"0.00007339600000","OBJECT_TYPE":"PAYLOAD","ELEMENT_SET_NO":"999","INCLINATION":"53.2201","GP_ID":"217589660","LAUNCH_DATE":"2022-06-17","SITE":"AFETR","ECCENTRICITY":"0.00021800","RCS_SIZE":"LARGE","TLE_LINE2":"2 52867  53.2201  69.3335 0002180  34.3626 325.7507 15.08847832 22815","MEAN_ANOMALY":"325.7507","REV_AT_EPOCH":"2281","EPHEMERIS_TYPE":"0","MEAN_MOTION":"15.08847832","RA_OF_ASC_NODE":"69.3335","EPOCH":"2022-11-12T17:25:27.247584","DECAY_DATE":null,"ARG_OF_PERICENTER":"34.3626","CLASSIFICATION_TYPE":"U"}];
